{
  "type": "FeatureCollection",
  "features": [
    {
      "type": "Feature",
      "properties": {
        "norad_id": 64694,
        "name": "GOSAT-GW (IBUKI GW)",
        "group": "resource",
        "lat": 66.98403280488895,
        "lon": -84.75164288633415,
        "alt_km": 661.3504051594318,
        "timestamp": "2025-12-25T09:48:51.944263+00:00",
        "meta_object_name": "GOSAT-GW (IBUKI GW)",
        "meta_object_id": "2025-141A",
        "meta_epoch": "2025-12-24T22:02:58.760160",
        "meta_mean_motion": 14.67558979,
        "meta_eccentricity": 0.0001437,
        "meta_inclination": 98.0439,
        "meta_ra_of_asc_node": 294.2118,
        "meta_arg_of_pericenter": 82.4259,
        "meta_mean_anomaly": 277.7109,
        "meta_ephemeris_type": 0,
        "meta_classification_type": "U",
        "meta_norad_cat_id": 64694,
        "meta_element_set_no": 999,
        "meta_rev_at_epoch": 2628,
        "meta_bstar": 0.00019399347,
        "meta_mean_motion_dot": 1.053e-05,
        "meta_mean_motion_ddot": 0,
        "tle_line1": "1 64694U 25141A   25358.91873565  .00001053  00000+0  19399-3 0  9991",
        "tle_line2": "2 64694  98.0439 294.2118 0001437  82.4259 277.7109 14.67558979 26288"
      },
      "geometry": {
        "type": "Point",
        "coordinates": [
          -84.75164288633415,
          66.98403280488895
        ]
      }
    },
    {
      "type": "Feature",
      "properties": {
        "norad_id": 64876,
        "name": "IONOSFERA-M 3",
        "group": "resource",
        "lat": 48.34275653673729,
        "lon": 150.688155250786,
        "alt_km": 816.1441667533882,
        "timestamp": "2025-12-25T09:48:51.944273+00:00",
        "meta_object_name": "IONOSFERA-M 3",
        "meta_object_id": "2025-155A",
        "meta_epoch": "2025-12-24T23:03:53.330688",
        "meta_mean_motion": 14.2144392,
        "meta_eccentricity": 0.00018496,
        "meta_inclination": 98.58,
        "meta_ra_of_asc_node": 320.4822,
        "meta_arg_of_pericenter": 40.2291,
        "meta_mean_anomaly": 319.9024,
        "meta_ephemeris_type": 0,
        "meta_classification_type": "U",
        "meta_norad_cat_id": 64876,
        "meta_element_set_no": 999,
        "meta_rev_at_epoch": 2165,
        "meta_bstar": 5.5377291e-05,
        "meta_mean_motion_dot": 7.8e-07,
        "meta_mean_motion_ddot": 0,
        "tle_line1": "1 64876U 25155A   25358.96103392  .00000078  00000+0  55377-4 0  9990",
        "tle_line2": "2 64876  98.5800 320.4822 0001849  40.2291 319.9024 14.21443920 21656"
      },
      "geometry": {
        "type": "Point",
        "coordinates": [
          150.688155250786,
          48.34275653673729
        ]
      }
    },
    {
      "type": "Feature",
      "properties": {
        "norad_id": 64877,
        "name": "IONOSFERA-M 4",
        "group": "resource",
        "lat": -47.83791850512569,
        "lon": -29.565695067235865,
        "alt_km": 827.4035578982666,
        "timestamp": "2025-12-25T09:48:51.944283+00:00",
        "meta_object_name": "IONOSFERA-M 4",
        "meta_object_id": "2025-155B",
        "meta_epoch": "2025-12-24T23:54:22.235616",
        "meta_mean_motion": 14.21445093,
        "meta_eccentricity": 0.00012811,
        "meta_inclination": 98.5801,
        "meta_ra_of_asc_node": 320.4356,
        "meta_arg_of_pericenter": 51.7221,
        "meta_mean_anomaly": 308.4072,
        "meta_ephemeris_type": 0,
        "meta_classification_type": "U",
        "meta_norad_cat_id": 64877,
        "meta_element_set_no": 999,
        "meta_rev_at_epoch": 2165,
        "meta_bstar": 6.2062411e-05,
        "meta_mean_motion_dot": 9.3e-07,
        "meta_mean_motion_ddot": 0,
        "tle_line1": "1 64877U 25155B   25358.99609069  .00000093  00000+0  62062-4 0  9992",
        "tle_line2": "2 64877  98.5801 320.4356 0001281  51.7221 308.4072 14.21445093 21659"
      },
      "geometry": {
        "type": "Point",
        "coordinates": [
          -29.565695067235865,
          -47.83791850512569
        ]
      }
    },
    {
      "type": "Feature",
      "properties": {
        "norad_id": 64899,
        "name": "MICROCARB",
        "group": "resource",
        "lat": -69.81087215470049,
        "lon": -127.9386269745423,
        "alt_km": 671.8408377404221,
        "timestamp": "2025-12-25T09:48:51.944293+00:00",
        "meta_object_name": "MICROCARB",
        "meta_object_id": "2025-156A",
        "meta_epoch": "2025-12-24T17:59:43.152864",
        "meta_mean_motion": 14.72075752,
        "meta_eccentricity": 0.00176333,
        "meta_inclination": 98.001,
        "meta_ra_of_asc_node": 73.902,
        "meta_arg_of_pericenter": 108.7626,
        "meta_mean_anomaly": 251.5496,
        "meta_ephemeris_type": 0,
        "meta_classification_type": "U",
        "meta_norad_cat_id": 64899,
        "meta_element_set_no": 999,
        "meta_rev_at_epoch": 2230,
        "meta_bstar": 0.00011833777,
        "meta_mean_motion_dot": 6.96e-06,
        "meta_mean_motion_ddot": 0,
        "tle_line1": "1 64899U 25156A   25358.74980501  .00000696  00000+0  11834-3 0  9992",
        "tle_line2": "2 64899  98.0010  73.9020 0017633 108.7626 251.5496 14.72075752 22306"
      },
      "geometry": {
        "type": "Point",
        "coordinates": [
          -127.9386269745423,
          -69.81087215470049
        ]
      }
    },
    {
      "type": "Feature",
      "properties": {
        "norad_id": 64900,
        "name": "CO3D 3",
        "group": "resource",
        "lat": -35.41983312784728,
        "lon": 80.92205917168828,
        "alt_km": 511.8336205602918,
        "timestamp": "2025-12-25T09:48:51.944303+00:00",
        "meta_object_name": "CO3D 3",
        "meta_object_id": "2025-156B",
        "meta_epoch": "2025-12-24T22:54:47.501280",
        "meta_mean_motion": 15.20194383,
        "meta_eccentricity": 0.00013696,
        "meta_inclination": 97.4336,
        "meta_ra_of_asc_node": 75.1465,
        "meta_arg_of_pericenter": 70.9391,
        "meta_mean_anomaly": 289.1993,
        "meta_ephemeris_type": 0,
        "meta_classification_type": "U",
        "meta_norad_cat_id": 64900,
        "meta_element_set_no": 999,
        "meta_rev_at_epoch": 2306,
        "meta_bstar": 0.00030942596,
        "meta_mean_motion_dot": 6.635e-05,
        "meta_mean_motion_ddot": 0,
        "tle_line1": "1 64900U 25156B   25358.95471645  .00006635  00000+0  30943-3 0  9993",
        "tle_line2": "2 64900  97.4336  75.1465 0001369  70.9391 289.1993 15.20194383 23067"
      },
      "geometry": {
        "type": "Point",
        "coordinates": [
          80.92205917168828,
          -35.41983312784728
        ]
      }
    },
    {
      "type": "Feature",
      "properties": {
        "norad_id": 64901,
        "name": "CO3D 4",
        "group": "resource",
        "lat": -36.15340540081314,
        "lon": 81.06835738969762,
        "alt_km": 512.5434324795033,
        "timestamp": "2025-12-25T09:48:51.944313+00:00",
        "meta_object_name": "CO3D 4",
        "meta_object_id": "2025-156C",
        "meta_epoch": "2025-12-24T22:55:00.106176",
        "meta_mean_motion": 15.20221822,
        "meta_eccentricity": 0.00014787,
        "meta_inclination": 97.4335,
        "meta_ra_of_asc_node": 75.1468,
        "meta_arg_of_pericenter": 157.9267,
        "meta_mean_anomaly": 202.2032,
        "meta_ephemeris_type": 0,
        "meta_classification_type": "U",
        "meta_norad_cat_id": 64901,
        "meta_element_set_no": 999,
        "meta_rev_at_epoch": 2306,
        "meta_bstar": 0.00022985261,
        "meta_mean_motion_dot": 4.914e-05,
        "meta_mean_motion_ddot": 0,
        "tle_line1": "1 64901U 25156C   25358.95486234  .00004914  00000+0  22985-3 0  9999",
        "tle_line2": "2 64901  97.4335  75.1468 0001478 157.9267 202.2032 15.20221822 23068"
      },
      "geometry": {
        "type": "Point",
        "coordinates": [
          81.06835738969762,
          -36.15340540081314
        ]
      }
    },
    {
      "type": "Feature",
      "properties": {
        "norad_id": 64902,
        "name": "CO3D 2",
        "group": "resource",
        "lat": 33.695687796708576,
        "lon": -99.51196468217026,
        "alt_km": 503.17859642210624,
        "timestamp": "2025-12-25T09:48:51.944322+00:00",
        "meta_object_name": "CO3D 2",
        "meta_object_id": "2025-156D",
        "meta_epoch": "2025-12-25T04:26:08.212992",
        "meta_mean_motion": 15.20191947,
        "meta_eccentricity": 8.1e-05,
        "meta_inclination": 97.4337,
        "meta_ra_of_asc_node": 75.2725,
        "meta_arg_of_pericenter": 59.8024,
        "meta_mean_anomaly": 300.3291,
        "meta_ephemeris_type": 0,
        "meta_classification_type": "U",
        "meta_norad_cat_id": 64902,
        "meta_element_set_no": 999,
        "meta_rev_at_epoch": 2309,
        "meta_bstar": 0.00028715,
        "meta_mean_motion_dot": 6.152e-05,
        "meta_mean_motion_ddot": 0,
        "tle_line1": "1 64902U 25156D   25359.18481728  .00006152  00000+0  28715-3 0  9992",
        "tle_line2": "2 64902  97.4337  75.2725 0000810  59.8024 300.3291 15.20191947 23092"
      },
      "geometry": {
        "type": "Point",
        "coordinates": [
          -99.51196468217026,
          33.695687796708576
        ]
      }
    }
  ]
}